GOES 19                 
1 60133U 24119A   26063.34003264 -.00000260  00000+0  00000+0 0  9996
2 60133   0.0165 326.7117 0000996  53.9137 188.6733  1.00271970  5914
FENGYUN 3H              
1 65815U 25219A   26063.61070286  .00000115  00000+0  74698-4 0  9995
2 65815  98.6680   6.4642 0001397  65.0627 295.0695 14.19930989 22544
